IRIDIUM 36 [-]          
1 24967U 97056C   24070.92364373  .00000692  00000+0  22843-3 0  9993
2 24967  86.4024   7.5237 0002394  84.5488 275.5983 14.36668567385684
IRIDIUM 39 [-]          
1 25042U 97069D   24070.94069237  .00001014  00000+0  26856-3 0  9992
2 25042  86.3900  49.5754 0020311  56.2481 304.0654 14.47740359381905
IRIDIUM 38 [-]          
1 25043U 97069E   24070.96171968  .00000614  00000+0  20017-3 0  9998
2 25043  86.3907  67.9272 0002924 128.8076 231.3383 14.37104972379405
IRIDIUM 42 [-]          
1 25077U 97077A   24070.96839037  .00000561  00000+0  18851-3 0  9996
2 25077  86.3908  73.5327 0002220 106.2245 253.9196 14.35417954374721
IRIDIUM 44 [-]          
1 25078U 97077B   24070.91201297  .00000644  00000+0  20156-3 0  9996
2 25078  86.3924  56.7127 0004065  98.3648 261.8012 14.39240440377049
IRIDIUM 24 [-]          
1 25105U 97082B   24070.49613797  .00000503  00000+0  15030-3 0  9997
2 25105  86.3858 276.6681 0012028 159.2711 200.8979 14.41011440376414
IRIDIUM 51 [-]          
1 25262U 98018A   24070.06851675  .00015579  00000+0  78483-3 0  9993
2 25262  86.3879 278.7946 0152687 186.2392 173.6950 15.07339561376460
